IRIDIUM 7               
1 24793U 97020B   24150.54369682  .00000490  00000+0  16444-3 0  9992
2 24793  86.3952 337.6446 0001948  83.8233 276.3185 14.35231722417073
IRIDIUM 5               
1 24795U 97020D   24150.31659774  .00004617  00000+0  43578-3 0  9996
2 24795  86.3919 259.6532 0123802  69.9399 291.5102 14.87777473428298
IRIDIUM 4               
1 24796U 97020E   24149.93548519  .00000481  00000+0  15845-3 0  9998
2 24796  86.3946 335.0319 0002177  85.2594 274.8852 14.36156060417303
IRIDIUM 914             
1 24836U 97030A   24150.08717691  .00000525  00000+0  16034-3 0  9991
2 24836  86.3934 344.7009 0003705  70.0205 290.1392 14.40014246413936
IRIDIUM 16              
1 24841U 97030F   24150.52218375  .00000505  00000+0  16099-3 0  9990
2 24841  86.4050   6.4415 0000773 165.0734 195.0487 14.37908620412110
IRIDIUM 911             
1 24842U 97030G   24149.66129129  .00000626  00000+0  16832-3 0  9991
2 24842  86.4476   5.9461 0012491 305.0995  54.9036 14.46546220419476
IRIDIUM 17              
1 24870U 97034B   24149.78323374  .00000499  00000+0  16166-3 0  9995
2 24870  86.3983  36.3429 0002384 128.0823 232.0590 14.37003121408362
IRIDIUM 920             
1 24871U 97034C   24149.70297343  .00000462  00000+0  13843-3 0  9993
2 24871  86.3997  16.5066 0009394 271.1006  88.9117 14.40719861411205
